NORAD_CAT_ID,OBJECT_NAME,OBJECT_TYPE,EPOCH,MEAN_MOTION,ECCENTRICITY,INCLINATION,RA_OF_ASC_NODE,ARG_OF_PERICENTER,MEAN_ANOMALY,BSTAR,MEAN_MOTION_DOT,MEAN_MOTION_DDOT,TLE_LINE0,TLE_LINE1,TLE_LINE2,SEMIMAJOR_AXIS,PERIOD,APOGEE,PERIGEE,DECAYED
50836.0,STARLINK-3330,PAYLOAD,2023-08-31 00:59:12,15.08843808,0.0001028,53.2173,356.5696,88.3404,271.7706,0.00022587,3.309e-05,0.0,0 STARLINK-3330,1 50836U 22001AK  23243.04111772  .00003309  00000-0  22587-3 0  9996,2 50836  53.2173 356.5696 0001028  88.3404 271.7706 15.08843808 92380,6917.869,95.437,540.445,539.023,0.0
50836.0,STARLINK-3330,PAYLOAD,2023-08-31 10:31:32,15.08831742,0.0001282,53.2176,354.7809,92.5589,267.555,9.2044e-06,-1.41e-06,0.0,0 STARLINK-3330,1 50836U 22001AK  23243.43857112 -.00000141  00000-0  92044-5 0  9993,2 50836  53.2176 354.7809 0001282  92.5589 267.5550 15.08831742 92443,6917.906,95.438,540.658,538.884,0.0
50836.0,STARLINK-3330,PAYLOAD,2023-09-01 13:33:05,15.08843691,8.28e-05,53.2182,349.7285,84.5635,275.5452,-4.0673e-05,-9.35e-06,0.0,0 STARLINK-3330,1 50836U 22001AK  23244.56464538 -.00000935  00000-0 -40673-4 0  9996,2 50836  53.2182 349.7285 0000828  84.5635 275.5452 15.08843691 91254,6917.869,95.437,540.307,539.161,0.0
50836.0,STARLINK-3330,PAYLOAD,2023-09-02 13:23:52,15.08835078,0.0001461,53.2168,345.2676,92.5448,267.5712,7.6952e-05,9.37e-06,0.0,0 STARLINK-3330,1 50836U 22001AK  23245.55824972  .00000937  00000-0  76952-4 0  9997,2 50836  53.2168 345.2676 0001461  92.5448 267.5712 15.08835078 91405,6917.895,95.438,540.771,538.75,0.0
50836.0,STARLINK-3330,PAYLOAD,2023-09-03 13:14:39,15.08843636,0.0001415,53.2164,340.8076,89.1872,270.9282,9.3268e-05,1.197e-05,0.0,0 STARLINK-3330,1 50836U 22001AK  23246.55184542  .00001197  00000-0  93268-4 0  9998,2 50836  53.2164 340.8076 0001415  89.1872 270.9282 15.08843636 91553,6917.869,95.437,540.713,538.755,0.0
50836.0,STARLINK-3330,PAYLOAD,2023-09-04 05:08:31,15.08829524,0.0001197,53.2166,337.8335,84.8595,275.2534,2.2925e-05,7.7e-07,0.0,0 STARLINK-3330,1 50836U 22001AK  23247.21425850  .00000077  00000-0  22925-4 0  9990,2 50836  53.2166 337.8335 0001197  84.8595 275.2534 15.08829524 93011,6917.912,95.438,540.605,538.949,0.0
50836.0,STARLINK-3330,PAYLOAD,2023-09-04 13:05:27,15.0882892,0.0001308,53.2175,336.345,89.6697,270.4445,1.0735e-06,-2.71e-06,0.0,0 STARLINK-3330,1 50836U 22001AK  23247.54546187 -.00000271  00000-0  10735-5 0  9997,2 50836  53.2175 336.3450 0001308  89.6697 270.4445 15.08828920 91704,6917.914,95.438,540.684,538.874,0.0
50836.0,STARLINK-3330,PAYLOAD,2023-09-05 06:34:42,15.08823277,0.0001426,53.2178,333.0733,82.2539,277.8615,0.00018567,2.667e-05,0.0,0 STARLINK-3330,1 50836U 22001AK  23248.27410179  .00002667  00000-0  18567-3 0  9998,2 50836  53.2178 333.0733 0001426  82.2539 277.8615 15.08823277 93173,6917.932,95.439,540.783,538.81,0.0
50836.0,STARLINK-3330,PAYLOAD,2023-09-06 00:03:55,15.08851394,0.0001378,53.2171,329.8039,93.5581,266.5569,-4.7628e-05,-1.046e-05,0.0,0 STARLINK-3330,1 50836U 22001AK  23249.00273102 -.00001046  00000-0 -47628-4 0  9996,2 50836  53.2171 329.8039 0001378  93.5581 266.5569 15.08851394 93282,6917.846,95.437,540.664,538.757,0.0
50836.0,STARLINK-3330,PAYLOAD,2023-09-07 06:16:16,15.08842799,0.0001301,53.2169,324.1539,97.6926,262.4214,7.6102e-05,9.24e-06,0.0,0 STARLINK-3330,1 50836U 22001AK  23250.26129735  .00000924  00000-0  76102-4 0  9999,2 50836  53.2169 324.1539 0001301  97.6926 262.4214 15.08842799 93478,6917.872,95.437,540.637,538.837,0.0
50836.0,STARLINK-3330,PAYLOAD,2023-09-07 09:27:02,15.08841055,0.0001299,53.2169,323.5593,96.5559,263.5581,5.7217e-05,6.23e-06,0.0,0 STARLINK-3330,1 50836U 22001AK  23250.39377861  .00000623  00000-0  57217-4 0  9990,2 50836  53.2169 323.5593 0001299  96.5559 263.5581 15.08841055 92132,6917.877,95.437,540.641,538.844,0.0
50836.0,STARLINK-3330,PAYLOAD,2023-09-07 14:13:11,15.08844863,0.000125,53.2162,322.6662,93.2101,266.9034,5.5507e-05,5.96e-06,0.0,0 STARLINK-3330,1 50836U 22001AK  23250.59249584  .00000596  00000-0  55507-4 0  9991,2 50836  53.2162 322.6662 0001250  93.2101 266.9034 15.08844863 92169,6917.866,95.437,540.595,538.866,0.0
50836.0,STARLINK-3330,PAYLOAD,2023-09-08 14:03:55,15.08809734,0.0003729,53.2188,318.2049,167.0662,193.0426,-0.0001732,-3.042e-05,0.0,0 STARLINK-3330,1 50836U 22001AK  23251.58605902 -.00003042  00000-0 -17320-3 0  9992,2 50836  53.2188 318.2049 0003729 167.0662 193.0426 15.08809734 93672,6917.973,95.439,542.418,537.258,0.0
50836.0,STARLINK-3330,PAYLOAD,2023-09-09 10:42:11,15.09819936,0.000138,53.2167,314.3328,59.4604,300.6525,0.0067346,0.00111556,0.0,0 STARLINK-3330,1 50836U 22001AK  23252.44596402  .00111556  00000-0  67346-2 0  9992,2 50836  53.2167 314.3328 0001380  59.4604 300.6525 15.09819936 93804,6914.887,95.376,537.706,535.797,0.0
50836.0,STARLINK-3330,PAYLOAD,2023-09-09 13:52:49,15.0985911,0.0001504,53.2167,313.7369,76.8061,283.3099,0.00687,0.00113966,0.0,0 STARLINK-3330,1 50836U 22001AK  23252.57834498  .00113966  00000-0  68700-2 0  9998,2 50836  53.2167 313.7369 0001504  76.8061 283.3099 15.09859110 92462,6914.767,95.373,537.672,535.592,0.0
50836.0,STARLINK-3330,PAYLOAD,2023-09-09 22:00:00,15.10454987,0.0001386,53.216,312.2144,86.6612,313.0703,0.00080175,0.00013071,0.0,0 STARLINK-3330,1 50836U 22001AK  23252.91667824  .00013071  00000-0  80175-3 0  9990,2 50836  53.2160 312.2144 0001386  86.6612 313.0703 15.10454987 93873,6912.948,95.336,535.772,533.855,0.0
50836.0,STARLINK-3330,PAYLOAD,2023-09-10 14:00:01,15.10454142,0.0001446,53.2161,309.2157,80.5217,346.3112,0.0018904,0.00031298,0.0,0 STARLINK-3330,1 50836U 22001AK  23253.58334491  .00031298  00000-0  18904-2 0  9996,2 50836  53.2161 309.2157 0001446  80.5217 346.3112 15.10454142  5863,6912.951,95.336,535.816,533.816,0.0
50836.0,STARLINK-3330,PAYLOAD,2023-09-11 06:00:00,15.10502919,0.0001413,53.2163,306.214,90.4657,3.4687,-0.0017499,-0.00029327,0.0,0 STARLINK-3330,1 50836U 22001AK  23254.25001157 -.00029327  00000-0 -17499-2 0  9991,2 50836  53.2163 306.2140 0001413  90.4657   3.4687 15.10502919 94071,6912.802,95.332,535.644,533.69,0.0
50836.0,STARLINK-3330,PAYLOAD,2023-09-11 14:00:01,15.10451357,0.0001324,53.2161,304.7152,81.1378,26.3865,0.0020365,0.00033748,0.0,0 STARLINK-3330,1 50836U 22001AK  23254.58334491  .00033748  00000-0  20365-2 0  9993,2 50836  53.2161 304.7152 0001324  81.1378  26.3865 15.10451357  5717,6912.959,95.336,535.74,533.909,0.0
50836.0,STARLINK-3330,PAYLOAD,2023-09-12 06:00:00,15.10516103,0.000131,53.2161,301.7136,93.0734,41.561,-0.0029036,-0.00048359,0.0,0 STARLINK-3330,1 50836U 22001AK  23255.25001157 -.00048359  00000-0 -29036-2 0  9998,2 50836  53.2161 301.7136 0001310  93.0734  41.5610 15.10516103 94221,6912.762,95.332,535.533,533.721,0.0
50836.0,STARLINK-3330,PAYLOAD,2023-09-12 14:00:01,15.1044602,0.0001251,53.2157,300.2147,86.8228,61.4706,0.0019541,0.0003236,0.0,0 STARLINK-3330,1 50836U 22001AK  23255.58335648  .00032360  00000-0  19541-2 0  9992,2 50836  53.2157 300.2147 0001251  86.8228  61.4706 15.10446020  5863,6912.976,95.336,535.706,533.976,0.0
50836.0,STARLINK-3330,PAYLOAD,2023-09-13 00:00:00,15.10447589,0.0001264,53.2154,298.3376,100.9851,154.1844,0.0036475,0.00060903,0.0,0 STARLINK-3330,1 50836U 22001AK  23256.00001157  .00060903  00000-0  36475-2 0  9994,2 50836  53.2154 298.3376 0001264 100.9851 154.1844 15.10447589  5713,6912.971,95.336,535.71,533.962,0.0
50836.0,STARLINK-3330,PAYLOAD,2023-09-13 09:59:28,15.10485023,0.0001432,53.2169,296.4645,98.2636,261.8519,6.963e-05,8.67e-06,0.0,0 STARLINK-3330,1 50836U 22001AK  23256.41630616  .00000867  00000-0  69630-4 0  9991,2 50836  53.2169 296.4645 0001432  98.2636 261.8519 15.10485023 94408,6912.857,95.334,535.712,533.732,0.0
50836.0,STARLINK-3330,PAYLOAD,2023-09-13 19:31:11,15.10468828,0.0001672,53.2165,294.6781,80.5924,279.5257,-4.1686e-05,-9.86e-06,0.0,0 STARLINK-3330,1 50836U 22001AK  23256.81332931 -.00000986  00000-0 -41686-4 0  9999,2 50836  53.2165 294.6781 0001672  80.5924 279.5257 15.10468828 93100,6912.906,95.335,535.927,533.615,0.0
50836.0,STARLINK-3330,PAYLOAD,2023-09-14 09:48:45,15.10457752,0.0001475,53.2174,291.9974,90.9667,269.1494,-0.00011142,-2.146e-05,0.0,0 STARLINK-3330,1 50836U 22001AK  23257.40885628 -.00002146  00000-0 -11142-3 0  9994,2 50836  53.2174 291.9974 0001475  90.9667 269.1494 15.10457752 94556,6912.94,95.335,535.825,533.785,0.0
50836.0,STARLINK-3330,PAYLOAD,2023-09-14 11:24:02,15.1045851,0.0001496,53.2175,291.6998,92.5888,267.5276,-0.00010329,-2.011e-05,0.0,0 STARLINK-3330,1 50836U 22001AK  23257.47502451 -.00002011  00000-0 -10329-3 0  9998,2 50836  53.2175 291.6998 0001496  92.5888 267.5276 15.10458510 93200,6912.938,95.335,535.837,533.768,0.0
50836.0,STARLINK-3330,PAYLOAD,2023-09-14 19:20:26,15.1046225,0.0001531,53.2176,290.2106,89.9011,270.2158,-4.3913e-05,-1.023e-05,0.0,0 STARLINK-3330,1 50836U 22001AK  23257.80586425 -.00001023  00000-0 -43913-4 0  9996,2 50836  53.2176 290.2106 0001531  89.9011 270.2158 15.10462250 94617,6912.926,95.335,535.85,533.733,0.0
50836.0,STARLINK-3330,PAYLOAD,2023-09-15 09:37:58,15.1047709,0.0001326,53.2165,287.5293,84.3948,275.7196,8.1992e-06,-1.56e-06,0.0,0 STARLINK-3330,1 50836U 22001AK  23258.40137165 -.00000156  00000-0  81992-5 0  9991,2 50836  53.2165 287.5293 0001326  84.3948 275.7196 15.10477090 94701,6912.881,95.334,535.663,533.829,0.0
50836.0,STARLINK-3330,PAYLOAD,2023-09-16 09:27:12,15.10494663,0.0001371,53.2147,283.0625,79.8989,280.2158,0.00062998,0.00010216,0.0,0 STARLINK-3330,1 50836U 22001AK  23259.39389168  .00010216  00000-0  62998-3 0  9992,2 50836  53.2147 283.0625 0001371  79.8989 280.2158 15.10494663 94855,6912.827,95.333,535.64,533.745,0.0
50836.0,STARLINK-3330,PAYLOAD,2023-09-16 11:02:29,15.104982,0.0001368,53.2145,282.7647,80.3547,279.76,0.00066631,0.00010824,0.0,0 STARLINK-3330,1 50836U 22001AK  23259.46005878  .00010824  00000-0  66631-3 0  9996,2 50836  53.2145 282.7647 0001368  80.3547 279.7600 15.10498200 93503,6912.817,95.333,535.627,533.736,0.0
